Id,Name,Address,City,State,ZIP,Phone,Type
593988946905,HUMANITAS IN-HOME HEALTHCARE OF RIVERDALE NURSE PRACTITIONER IN FAMIL,5683 RIVERDALE AVE,BRONX,NY,104711820,3476074319,12-70
859769310451,ST. JOSEPH'S HOSPITAL YONKERS,127 SOUTH BROADWAY,YONKERS,NY,107014080,9143787000,00-09
879280369383,PUTNAM HOSPITAL CENTER,670 STONELEIGH AVENUE,YORKTOWN HEIGHTS,NY,105981832,9142795711,00-09
780175599638,BRIARCLIFF FAMILY PODIATRY  PLLC,131 ORCHARD ROAD,BRIARCLIFF MANOR,NY,105101026,9148822326,12-70
451888273059,NORTHERN WESTCHESTER HOSPITAL,400 E MAIN ST,YORKTOWN HEIGHTS,NY,105984447,9146661200,00-09
609394421542,AHRC HEALTH CARE INC,83 MAIDEN LN,NEW YORK,NY,100384812,2127802500,00-04
695402214585,BETH ISRAEL MEDICAL CENTER,FIRST AVENUE AND 16TH STREET,NEW YORK,NY,100351641,2124202000,00-09
237691555322,CALLEN LORDE COMM HEALTH CENTER,230 WEST 17TH STREET,NEW YORK,NY,100115325,2122717206,00-04
845787617219,MOUNT SINAI HOSPITAL,1 GUSTAVE L LEVY PL,NEW YORK,NY,100296500,2122562904,00-09
659448781049,NEW YORK DOCTORS URGENT CARE PLLC,65 W 13TH ST,NEW YORK,NY,100117908,8455653700,12-70
549590898746,NYS OFFICE OF MENTAL HEALTH,7403 COMMONWEALTH BLVD,BELLEROSE,NY,114261839,7186922543,00-09
644839123423,GLEN OAKS INTERNAL MEDICINE PC,26004 80TH AVE,GLEN OAKS,NY,110041502,7183477090,12-70
712705830986,ST MARY'S HOME CARE,5 DAKOTA DRIVE   SUITE 200,NEW HYDE PARK,NY,110421109,5164719300,00-06
320834212803,ADULT AND GERIATRICS MEDICAL CARE PC,2195 E 22ND ST,BROOKLYN,NY,112241913,9176095537,12-70
746370622358,NEW YORK COMMUNITY HOSPITAL OF BROOKLYN INC,2525 KINGS HWY,BROOKLYN,NY,112291705,7186925385,00-09
123453579915,NEW YORK COMMUNITY HOSPITAL OF BROOKLYN INC,2525 KINGS HWY,BROOKLYN,NY,112291705,7186925335,12-Z1
609915331372,PERSONAL TOUCH HOME AIDES OF NEW YORK INC,3632 NOSTRAND AVENUE   4TH FLOOR,BROOKLYN,NY,112295308,7183756111,00-06
485375387315,CNH OPERATING LLC,3457 NOSTRAND AVE,BROOKLYN,NY,112295131,7186151100,00-18
216242758865,NEWYORK-PRESBYTERIAN-QUEENS,56-45 MAIN STREET,JAMAICA,NY,114353109,7186701231,00-09
257896631449,SMART MEDICAL CARE PC,8746 168TH ST,JAMAICA,NY,114323628,7185266660,12-70
597793863433,METRO URGENT MEDICAL CARE OF QUEENS,14-140 JFK TENANT 4,JAMAICA,NY,11430,8455653700,12-70
623773990400,HAMPTON HEALTH FAMILY NP PLLC,695 DUTCHESS TPKE STE 1,POUGHKEEPSIE,NY,126036443,8454734537,12-70
818939874811,VASSAR BROTHERS MEDICAL CENTER,45 READE PL,POUGHKEEPSIE,NY,126014723,8454548500,00-09
540522208363,THE PINES AT POUGHKEEPSIE CTR FOR NURSING & REHAB,100 FRANKLIN STREET,POUGHKEEPSIE,NY,126014341,8454544100,00-18
423656410727,BROOKHAVEN HEALTH CARE FACILITY LLC,801 GAZZOLA DR,EAST PATCHOGUE,NY,117724900,6314478800,12-70
922659179520,BROOKS - TLC HOSPITAL SYSTEM  INC.,529 CENTRAL AVE,IRVING,NY,140819705,7163637215,00-09
229503577735,TRI-COUNTY FAMILY MEDICINE ASSO PC,1 SCHOOL ST,GOWANDA,NY,140701143,7162417067,12-70
884710702273,FIVE STAR URGENT CARE JAMESTOWN MEDICAL PLLC,15 S MAIN ST,JAMESTOWN,NY,147016626,7164893144,12-70
785066109380,BROOKS-TLC HOSPITAL SYSTEM HOME HEALTH CARE-CLOSED,12644 SENECA ROAD,IRVING,NY,140819714,7169517167,00-06
510967251347,CHAUTAUQUA HOSPICE AND PALLIATIVE CARE,20 WEST FAIRMOUNT AVENUE,LAKEWOOD,NY,147501702,7163380033,00-08
900674632338,FLUSHING HOSPITAL & MEDICAL CENTER,4500 PARSONS BLVD,FLUSHING,NY,113552205,7186705000,00-09
954761505024,GOOD HEALTH MEDICAL CARE PLLC,4370 KISSENA BLVD,NEW YORK,NY,100034001,7182165767,12-70
349896190828,FOREST VIEW CENTER FOR REHABILITATION & NURSING,71 20 110TH STREET,FOREST HILLS,NY,113754844,7187933200,00-18
314059386240,FLUSHING HOSPITAL & MEDICAL CENTER,4500 PARSONS BLVD,FLUSHING,NY,113552205,7186705000,00-09
893232371375,NY MEDS URGENT CARE PLLC,3516A FRANCIS LEWIS BLVD,FLUSHING,NY,113581954,7166337600,12-70
812673209285,QUEENS FAMILY MEDICINE  PLLC,5834 MAIN ST,FRESH MEADOWS,NY,113654123,7183580506,12-70
842214365713,MANHATTAN PSYCHIATRIC CENTER,WARDS ISLAND,NEW YORK,NY,100356000,2123690500,00-09
288542241024,DAMIAN FAMILY CARE CENTERS  INC.,13 HELL GATE CIR,NEW YORK,NY,100356602,7186571100,00-04
819845238927,HENRY J CARTER SKILLED NURSING FACILITY,1752 PARK AVE,NEW YORK,NY,100352811,6466860000,00-18
551762330365,PROJECT RENEWAL INC,225 E 45TH ST,NEW YORK,NY,100173301,2126618934,00-04
844306745510,NYU LANGONE HOSPITALS,550 1ST AVE,NEW YORK,NY,100166402,2122631481,00-09
348361390084,HOSPICE OF NEW YORK  LLC,4518 COURT SQ STE 500,LONG ISLAND CITY,NY,111013433,7184721999,00-08
298900584221,MEMORIAL URGENT CARE GROUP,1275 YORK AVE,NEW YORK,NY,100656007,6462273813,12-70
527994285283,LITE STEP PODIATRY WELLNESS PC,6302 ROUTE 25A,WADING RIVER,NY,117922026,6317078771,12-70
838133954710,PECONIC BAY MEDICAL CENTER,1 HEROS WAY,RIVERHEAD,NY,119012054,6315486000,00-09
452952984043,COMMUNITY HEALTH INITIATIVES INC,2882 W 15TH ST,BROOKLYN,NY,112242770,7182103110,00-04
139527181157,CONEY ISLAND HOSPITAL CENTER,2601 OCEAN PARKWAY,BROOKLYN,NY,112357745,7186163000,00-09
183362908716,RAPHA FAMILY MEDICINE PC,2200 MAIN ST,BUFFALO,NY,142142449,7162004122,12-70
241598747993,KALEIDA HEALTH,100 HIGH ST,BUFFALO,NY,142031126,7168598396,00-09
746506891162,SOUTH BROOKLYN MEDICAL CARE PC,2705 MERMAID AVE,BROOKLYN,NY,112242005,7182652222,12-70
928805704328,SOUTH BEACH PSYCHIATRIC CENTER,777 SEAVIEW AVE,STATEN ISLAND,NY,103053409,7186672300,00-09
351571543062,ALBANY MEDICAL CENTER HOSPITAL,43 NEW SCOTLAND AVE,ALBANY,NY,122083462,5182628481,12-70
945717648431,URGENT & PRIMARY CARE PLLC,598 COLUMBIA TPKE,EAST GREENBUSH,NY,120611622,5184795240,12-70
382135208471,CAPITAL DISTRICT PSYCH CENTER,75 NEW SCOTLAND AVE,ALBANY,NY,122083474,5184479611,00-09
509228372527,TERESIAN HOUSE NURSING HOME CO INC,200 WASHINGTON AVE EXT,ALBANY,NY,122035335,5184562000,00-18
406603572320,MERCY HOSPITAL OF BUFFALO,565 ABBOTT RD,BUFFALO,NY,142202039,7168267000,00-09
449486238910,WNY COMMUNITY HEALTH CENTERS INC,135 GRANT STREET,LACKAWANNA,NY,142181504,7168814300,12-70
991677904818,ELLICOTT CENTER FOR REHABILITATION AND NURSING,200 SEVENTH STREET,BUFFALO,NY,142012161,7168472500,00-18
138974242302,MERCY HOSPITAL OF BUFFALO,565 ABBOTT RD,BUFFALO,NY,142202039,7168267000,00-18
127938474950,KHOURY MEDICAL CARE PC,670 92ND ST,BROOKLYN,NY,112355802,7188338777,12-70
393259191581,MAIMONIDES MEDICAL CENTER,4802 10TH AVE,BROOKLYN,NY,112302651,7182838958,00-09
469748200951,HAYM SOLOMON HOME FOR THE AGED,2340 CROPSEY AVENUE,BROOKLYN,NY,112145706,7183731700,00-18
541487326284,SYRACUSE COMMUNITY HEALTH CENTER EAST,1938 EAST FAYETTE ST,SYRACUSE,NY,132101339,3154767921,00-04
946016409323,ST JOSEPHS HOSPITAL HEALTH CENTER,301 PROSPECT AVE,SYRACUSE,NY,132043201,3154485880,00-09
969597620094,HOSPICE OF CENTRAL NEW YORK,990 SEVENTH NORTH STREET,LIVERPOOL,NY,130883148,3156341100,00-08
701451392789,FIVE STAR URGENT CARE BIG FLATS MEDICAL PLLC,830 COUNTY ROAD 64,SYRACUSE,NY,132192008,6078462030,12-70
498728895335,UP TO DATE MEDICAL HEALTHCARE PLLC,2747 CRESCENT ST STE 104,ASTORIA,NY,111023142,7182047550,12-70
959260217550,NEW YORK GRACIE SQUARE HOSPITAL INC,420 E 76TH ST,NEW YORK,NY,100213396,2124345300,00-09
491762485572,COLER REHABILITATION AND NURSING CARE CENTER,900 MAIN ST,ROOSEVELT ISLAND,NY,100440066,2128486000,00-18
433693698535,CORNERSTONE FAMILY HEALTHCARE,35 FELTERS RD,BINGHAMTON,NY,139032600,6072011200,00-04
878003651922,GREATER BINGHAMTON HEALTH CENTER,425 ROBINSON ST,BINGHAMTON,NY,139041735,6077241391,00-09
592707334824,NEW YORK EYE & EAR INFIRMARY,310 EAST 14TH STREET,NEW YORK,NY,100105615,2129794000,00-09
691059965654,THE INSTITUTE FOR FAMILY HEALTH,269 E 4TH ST,NEW YORK,NY,100097525,2122065200,00-04
299489426425,NEW GOUVERNEUR HOSPITAL S N F,227 MADISON STREET,NEW YORK,NY,100027537,2124415023,00-18
127760462886,NEW EAST SIDE NURSING HOME LLC,25 BIALYSTOKER PL,NEW YORK,NY,100024008,2126738500,00-18
375119974153,THE INSTITUTE FOR FAMILY HEALTH,340 W 85TH ST,NEW YORK,NY,10024,2122065200,00-04
932150341553,ST. LUKES ROOSEVELT HOSPITAL CENTER,1000 10TH AVE,NEW YORK,NY,10031,2125234000,00-09
162509341994,THE RIVERSIDE,150 RIVERSIDE DRIVE,NEW YORK,NY,100242298,6465053500,00-18
106702383350,MOUNT SINAI HOSPITAL,ONE GUSTAVE L LEVY PLACE,NEW YORK,NY,101285604,2122417981,00-09
228255742865,CARTHAGE AREA HOSPITAL  INC,20414 SUNSET AVENUE,LA FARGEVILLE,NY,136562222,3154931000,00-17
151397333261,RIVER HOSPITAL INC,4 FULLER ST,ALEXANDRIA BAY,NY,136071316,3154822511,00-85
193441959590,RIVER HOSPITAL INC,4 FULLER ST,ALEXANDRIA BAY,NY,136071316,3154821132,00-85
931292134154,WATERTOWN URGENT CARE PLLC,457 GAFFNEY DR,WATERTOWN,NY,136011834,3157792273,12-70
301449496216,VALLEY VIEW FAMILY PRACTICE ASSOCIATES  LLP,213 STATE ROUTE 245,STANLEY,NY,145619580,5855543119,12-70
406622231740,CLIFTON SPRINGS SANITARIUM CO,2 COULTER RD,CLIFTON SPRINGS,NY,144321122,3154621305,00-09
719785468959,RUSHVILLE HEALTH CENTER,2 RUBIN DRIVE,RUSHVILLE,NY,145449681,5855544400,00-04
828716869755,THROGGS NECK WALK IN MEDICAL CARE,3594 E TREMONT AVE,BRONX,NY,104615707,7185975800,12-70
677823349202,BRONX PSYCHIATRIC CENTER,1500 WATERS PLACE,BRONX,NY,104612723,7189310600,00-09
619728243517,CALVARY HOSPITAL INC,1740 EASTCHESTER RD,BRONX,NY,104612300,7185182465,00-08
597616340189,NASSAU HEALTH CARE CORPORATION,2201 HEMPSTEAD TPKE,EAST MEADOW,NY,115541859,5165726131,00-09
799555773538,PARK AMBULATORY MEDICAL SERVICES PLLC,743 WARWICK ST,HEMPSTEAD,NY,115508116,6462390967,12-70
783462117514,NASSAU HEALTH CARE CORPORATION,2201 HEMPSTEAD TPKE,EAST MEADOW,NY,115541859,5165726131,00-09
460808742189,DAMIAN FAMILY CARE CENTERS  INC.,11711 MYRTLE AVE,RICHMOND HILL,NY,114181751,7188479233,00-04
359318413515,JAMAICA HOSPITAL,8900 VAN WYCK EXPY,JAMAICA,NY,114182832,7182066000,00-09
304469228221,ALLMED URGENT CARE PC,11520 LIBERTY AVE,SOUTH RICHMOND HILL,NY,114191902,6468249344,12-70
415001409505,JAMAICA HOSPITAL,8900 VAN WYCK EXPY,JAMAICA,NY,114182832,7182066000,00-09
218186849296,ANTHONY L. JORDAN HEALTH CORPORATION,151 PARSELLS AVE,ROCHESTER,NY,146095118,5854547530,00-04
716013965081,ROCHESTER GENERAL HOSPITAL,1425 PORTLAND AVE,ROCHESTER,NY,146213001,5859224000,00-09
683997572670,UR MEDICINE HOME CARE  CERTIFIED SERVICES  INC,2180 EMPIRE BOULEVARD,WEBSTER,NY,145802028,5857872233,00-06
887694308856,UR MEDICINE HOSPICE,2180 EMPIRE BOULEVARD,WEBSTER,NY,145802029,5857878315,00-08
754155489042,GOAL FAMILY MEDICAL PC,5 SUNRISE PLZ STE 103,VALLEY STREAM,NY,115806130,5167587339,12-70
500095883998,SOUTH NASSAU COMMUNITIES HOSPITAL,1 HEALTHY WAY,VALLEY STREAM,NY,115805443,5166323000,00-09
670980284769,NORTH SHORE - L I J ORZAC CTR FOR REHABILITATION,900 FRANKLIN AVENUE,VALLEY STREAM,NY,115802145,5162566700,00-18
151882370385,HEWLETT URGENT CARE PLLC,1220 PENINSULA BLVD,HEWLETT,NY,115571224,5168584410,12-70
719427207262,BROOKHAVEN MEMORIAL HOSPITAL MEDICAL CENTER  INC,101 HOSPITAL RD,PATCHOGUE,NY,117724870,6316547100,12-Z1
144356629640,HEALTH EDGE MEDICAL CARE PLLC,504 MEDFORD AVE,PATCHOGUE,NY,117721321,6314754646,12-70
341957946535,BROOKHAVEN MEMORIAL HOSPITAL MEDICAL CENTER  INC,101 HOSPITAL ROAD,EAST PATCHOGUE,NY,117724870,6316547760,00-09
536779736583,PATCHOGUE URGENT CARE PC,152 N OCEAN AVE,PATCHOGUE,NY,117722004,6317301189,12-70
744922552376,BROOKHAVEN MEMORIAL HOSPITAL MEDICAL CENTER  INC,105 WEST MAIN STREET,PATCHOGUE,NY,117723003,6316872960,00-08
633810498604,WYCKOFF HEIGHTS MEDICAL CENTER,374 STOCKHOLM STREET,BROOKLYN,NY,112374512,7189637272,00-09
412175465254,OPTIMUM PRIMARY CARE MEDICAL PC,311 ST. NICHOLAS AVENUE,RIDGEWOOD,NY,113852296,7187665150,12-70
447094560044,SINDEE GERSTEIN FAMILY NURSE PRACTITIONER PLLC,13105 MAIN RD,MATTITUCK,NY,119523214,6315009333,12-70
452791667415,SOUTH SHORE UNIVERSITY HOSPITAL,301 E MAIN ST,RIVERHEAD,NY,119012154,6319683001,00-09
755926783829,PECONIC LANDING AT SOUTHOLD INC,1500 BRECKNOCK RD,GREENPORT,NY,119443117,6314773800,00-18
428514431542,DAMIAN FAMILY CARE CENTERS  INC.,219 E 121ST ST,NEW YORK,NY,100353018,2129875133,00-04
789556887279,BETH ISRAEL MEDICAL CENTER,FIRST AVENUE & 16TH STREET,NEW YORK,NY,100033105,2122563027,00-09
952422477812,NEWTONVILLE PEDIATRICS & INTERNAL MEDICINE,564 NEW LOUDON RD,LATHAM,NY,12110,5187831445,12-70
704199263334,AG URGENT CARE PC,1349 BROADWAY,NEW YORK,NY,100401069,7189752270,12-70
549699140370,RICHMOND MEDICAL HEALTH CARE P.C.,2691 HYLAN BLVD,STATEN ISLAND,NY,103063427,7183511221,12-70
157440983275,STATEN ISLAND UNIVERSITY HOSPITAL,475 SEAVIEW AVE,STATEN ISLAND,NY,103053436,7182264502,00-09
608148100302,STATEN ISLAND UNIVERSITY HOSPITAL,475 SEAVIEW AVE,STATEN ISLAND,NY,103093932,7182264502,00-09
822609645170,STATEN ISLAND UNIVERSITY  HOSPITAL UNIV HOSPICE,78 MEISNER AVENUE,STATEN ISLAND,NY,103061234,7182266450,00-08
661988222436,EGER HEALTH CARE AND REHABILITATION CENTER,140 MEISNER AVE,STATEN ISLAND,NY,103061236,7189893021,00-18
976501115152,NOOR MEDICAL CARE PLLC,1036 COMMACK RD,DIX HILLS,NY,117468210,6319407017,12-70
831780915168,PILGRIM PSYCHIATRIC CENTER,998 CROOKED HILL ROAD,WEST BRENTWOOD,NY,117171019,6317613500,00-09
188898702599,URGENT HEALTH MEDICAL CARE PC,981 HAMPSHIRE RD,BAY SHORE,NY,117067627,6312457425,12-70
803945512438,THE ROSALIND AND JOSEPH GURWIN JEWISH GERIATRIC CENTER OF LONG ISLAND,68 HAUPPAUGE RD,COMMACK,NY,117254403,6317152600,00-06
797601978483,FAMILY & CHILDREN'S SERVICE OF THE CAPITAL REGION INC.,650 WARREN STREET,ALBANY,NY,122082998,5184626531,12-70
986741481827,ST PETERS HOSPITAL OF THE CITY OF ALBANY,315 S MANNING BLVD,SLINGERLANDS,NY,121599222,5185251550,00-09
607434420579,ONEIDA HEALTH HOSPITAL,321 GENESEE STREET,VERONA,NY,134783426,3153636000,00-09
640344610866,NORTHERN OSWEGO COUNTY HEALTH SERVICES  INC.,640 COUNTY ROUTE 22,PARISH,NY,131313182,3156255210,00-04
367522536039,CLIFTON-FINE HEALTH CARE CORPORATION,1014 OSWEGATCHIE TRAIL RD,STAR LAKE,NY,136903143,3158483351,00-09
935119137536,ST. JOSEPH'S HOSPITAL YONKERS,127 S BROADWAY,YONKERS,NY,107014080,9143787000,00-09
813751652756,SANS SOUCI REHABILITATION AND NURSING CENTER,115 PARK AVENUE,YONKERS,NY,107032903,9144239800,00-18
415250742073,MARK SANDIGURSKY INTERNAL MEDICINE  PLLC,875 YONKERS AVE,YONKERS,NY,107043019,9142370959,12-70
820856424502,CARE FOR THE HOMELESS,190 WILLOW AVE,BRONX,NY,104543518,7186659123,00-04
440221119330,ELMHURST CARE CENTER INC,100 17  23RD AVENUE,EAST ELMHURST,NY,113691305,7182058100,00-18
940090231822,MEDRITE MEDICAL CARE PC,919 2ND AVE,WEST HAVERSTRAW,NY,109931047,7189160348,12-70
865987483396,Franklin Delano Roosevelt Campus of the VA Hudson Valley Health Care System (Montrose),2094 Albany Post Rd.,Montrose,NY,10548,914-737-4400,
419261454989,RYAN-CHELSEA CLINTON COMMUNITY HEALTH CENTER,645 10TH AVE,NEW YORK,NY,100362904,2122654500,00-04
842685350752,FAMILY PLANNING OF SOUTH CENTRAL NEW YORK INC,37 DIETZ ST,WALTON,NY,138561218,6074322252,12-70
775607104974,DELAWARE VALLEY HOSPITAL INC,1 TITUS PL,WALTON,NY,138561457,6078652100,00-09
908998167016,UNITED HEALTH SERVICES HOSPITALS  INC,10-42 MITCHELL AVENUE,WINDSOR,NY,138654126,6077636000,00-09
800649896994,GARNET HEALTH URGENT CARE PC,707 E MAIN ST,MONTICELLO,NY,127013210,8453337575,12-70
634034444552,MONTEFIORE MOUNT VERNON HOSPITAL,12 NORTH 7TH AVENUE,MOUNT VERNON,NY,105503004,9146648000,00-09
412434785919,PLAZA MEDICAL CARE PC,5 PENN PLZ,NEW YORK,NY,100011821,3474602255,12-70
560308291050,APPLE MED URGENT CARE  PC,504 GRAMATAN AVE,MOUNT VERNON,NY,105523009,9146681600,12-70
612997831360,JAMAICA ACQUISITION III LLC,3155 GRACE AVE,BRONX,NY,104693134,7182913500,00-06
179005984820,PRIMARY CARE INTERNAL MEDICINE OF ITHACA PLLC,217 N AURORA ST,ITHACA,NY,148504345,6072732811,12-70
518928782630,CAYUGA MEDICAL CENTER AT ITHACA,101 DATES DR,ITHACA,NY,148501383,6072744443,00-09
741673412882,UNION SQUARE URGENT MEDICAL CARE PC,110 W 14TH ST,NEW YORK,NY,100117303,7189395900,12-70
961132679311,CAYUGA MEDICAL CENTER AT ITHACA,101 DATES DR,ITHACA,NY,148501383,6072744443,00-09
405634589718,COLLEGE POINT WELLNESS  LCSW  P.C.,1814 COLLEGE POINT BLVD,COLLEGE POINT,NY,113562241,3478048277,12-70
515851701916,ELMHURST HOSPITAL CENTER,79-01 BROADWAY,ELMHURST,NY,113731329,7183341141,00-09
856692957295,BRONX URGENT CARE PC,1733 E 174TH ST,BRONX,NY,104721801,7189942273,12-70
807204397663,REBEKAH CERTIFIED HOME HEALTH AGENCY,1040 HAVEMEYER AVENUE,BRONX,NY,104625382,7188636200,00-06
456693219438,LAJUAN BETHUNE BOOKER NP IN FAMILY HEALTH PC,24 KNIGHTS CIR,NEWBURGH,NY,125502422,9172737686,12-70
676396810447,ST LUKE'S CORNWALL HOSPITAL,70 DUBOIS STREET,NEWBURGH,NY,125504851,8455614400,00-09
898079840383,EXCEL URGENT CARE OF FISHKILL PLLC,1004 MAIN ST,FISHKILL,NY,125243509,8455653700,12-70
436886829358,PREMIER INTERNAL MEDICINE ASSOCIATES PC,444 HUGUENOT AVENUE,STATEN ISLAND,NY,103121119,7189483474,12-70
451985940842,NYU LANGONE HOSPITALS,550 1ST AVE,STATEN ISLAND,NY,103101337,2122631481,00-09
503958991774,GOLDBERG URGENT CARE PHYSICIAN PLLC,2960 VICTORY BLVD,STATEN ISLAND,NY,103146605,8455653700,12-70
672832450345,FAIRMOUNT FAMILY MEDICINE LLC,5006 WEST GENESEE STREET,CAMILLUS,NY,130312326,3152342342,12-70
784500913680,ST CAMILLUS RESIDENTIAL HEALTH CARE FACILITY,813 FAY ROAD,SYRACUSE,NY,132193009,3154882951,12-70
384862257297,INTERNAL MEDICINE OF ITHACA PC,2359 N TRIPHAMMER RD,ITHACA,NY,148501059,6072573452,12-70
360263747864,THE BROOKLYN HOSPITAL CENTER,121 DEKALB AVE,BROOKLYN,NY,112496620,7184883736,00-09
234390514977,COMPREHENSIVE DIGESTIVE AND LIVER MEDICAL CARE PC,55 GREENE AVE,BROOKLYN,NY,112386432,9174009426,12-70
868677451219,NEW YORK STATE PSYCHIATRIC INSTITUTE,722 W 168TH ST,NEW YORK,NY,100321098,2125435000,00-09
326346213211,ACADEMY MEDICAL CARE PC,571 ACADEMY ST,NEW YORK,NY,100345105,2125670550,12-70
391200155952,FORDHAM NURSING AND REHABILITATION CENTER,2678 KINGSBRIDGE TERRACE,BRONX,NY,104637471,7187965800,00-18
207497455116,FIELDSTON LODGE CARE CENTER,666 KAPPOCK ST,BRONX,NY,104637704,9175491203,00-18
801356639235,ENLOE MEDICAL CENTER,1600 ESPLANADE,NEW YORK,NY,100165496,5303327300,12-70
442545831267,JACOBI MEDICAL CENTER,1400 PELHAM PARKWAY SOUTH,BRONX,NY,104672410,7189185000,00-09
417559486517,NASSAU SUFFOLK MEDICAL CARE PC,807 S OYSTER BAY RD,BETHPAGE,NY,117141030,5166228888,12-70
142089228997,ST JOSEPH HOSPITAL,4295 HEMPSTEAD TPKE,BETHPAGE,NY,117145713,5165796000,00-09
266448930940,COLD SPRING HILLS CENTER FOR NURSING AND REHAB,378 SYOSSET WOODBURY ROAD,WOODBURY,NY,117971200,5169213900,00-18
881306218135,HEALTH52 FAMILY HEALTH NP PLLC,951 PHYLLIS DR,BALDWIN,NY,115105047,5165440758,12-70
381547464390,SOUTH NASSAU COMMUNITIES HOSPITAL,1 HEALTHY WAY,OCEANSIDE,NY,115721551,5166323000,00-09
909348855214,ALL FAMILY MEDICINE PC,365 BROADWAY,AMITYVILLE,NY,117012716,5165907210,12-70
989107534398,BRUNSWICK PSYCH CENTER,81 LOUDEN AVE,AMITYVILLE,NY,117012736,6317897225,00-09
253080236407,NORTH SHORE LIJ MEDICAL GROUP URGENT MEDICAL CARE  P.C,145 COMMUNITY DR,MASSAPEQUA PARK,NY,117623728,6503877575,12-70
952221219578,BELAIR CARE CENTER INC,2478 JERUSALEM AVE,NORTH BELLMORE,NY,117101827,5168261160,00-18
286147541917,THE FLOATING HOSPITAL INC,421 27TH AVE,LONG ISLAND CITY,NY,111024175,7187776311,00-04
873907793364,NYU LANGONE HOSPITALS,550 1ST AVE,NEW YORK,NY,100166402,2122631481,00-09
839467337271,PREFERRED HEALTH MEDICAL CARE PC,6902 AUSTIN ST FL 3,SOUTH HUNTINGTON,NY,117464522,7182631450,12-70
740555798783,SAGAMORE CHILDREN'S PSYCHIATRIC CENTER,197 HALF  HOLLOW ROAD,DIX HILLS,NY,117465861,6313701701,00-09
130061139329,VILLAGE FAMILY PRACTICE  PC,30 5TH AVE,NEW YORK,NY,10011,2124771750,12-70
833791477472,BIMC FACULTY PRACTICE,10 UNION SQ E,NEW YORK,NY,100033314,2128446852,12-Z1
448429391186,VILLAGECARE HOME CARE  (CLOSED),154 CHRISTOPHER STREET  2ND FLOOR,NEW YORK,NY,100142840,2124024501,00-06
103161510434,NORTHERN OSWEGO COUNTY HEALTH SERVICES  INC.,124 SALISBURY STREET,SANDY CREEK,NY,13145,3153873620,00-04
452375737067,OSWEGO HOSPITAL,110 W 6TH ST,PULASKI,NY,131421400,3153495511,00-09
649020979370,NORTH SUFFOLK MEDICAL CARE PC,4480 MIDDLE COUNTRY RD,CALVERTON,NY,119331185,6312083100,12-70
804969832844,EAST END URGENT & PRIMARY CARE MEDICINE PLLC,1228 E MAIN ST,RIVERHEAD,NY,119012675,6316033400,12-70
462328467608,FIRST CHOICE WALK-IN MEDICAL CARE P.C,21012 NORTHERN BLVD,GREENVALE,NY,115481005,7182292273,12-70
141218497071,GLEN COVE HOSPITAL,972 BRUSH HOLLOW RD,GLEN COVE,NY,115422254,5168766000,00-09
354668293732,BRONXCARE DR MARTIN LUTHER KING JR HEALTH CENTER,1690 BRYANT AVENUE,BRONX,NY,104605300,7189018600,00-04
981035877598,SPLIT ROCK REHABILITION AND HEALTH CARE CENTER,3525 BAYCHESTER AVE,BRONX,NY,104665001,7187988900,00-18
830077212790,CALVARY HOSPITAL INC,1740 EASTCHESTER RD,BRONX,NY,104612300,7185182069,00-09
307924873251,THROGS NECK OPERATING CO LLC,707 THROGGS NECK EXPY,BRONX,NY,104652319,7184300003,00-18
730160240963,CARING FAMILY MEDICINE PLLC,225 MIDDLE COUNTRY RD,MIDDLE ISLAND,NY,119532553,6317758850,12-70
266501641265,MEDFORD MULTICARE CENTER FOR LIVING,3115 HORSEBLOCK ROAD,MEDFORD,NY,117632526,6317303000,00-18
676521710215,QUANTUM REHABILITATION AND NURSING LLC,63 OAKCREST AVE,MIDDLE ISLAND,NY,119531415,7189397500,00-18
351995382896,VXL MEDICAL CARE PC,8720 QUEENS BLVD,WOODSIDE,NY,113775776,7182809680,12-70
207545158937,BRIDGES URGENT CARE PLLC,61 E 86TH ST,SUNNYSIDE,NY,111041660,6467154080,12-70
510879319164,COMPLETE MEDICAL HEALTHCARE  PC,281 WHITE PLAINS RD,EASTCHESTER,NY,107094407,7193675900,12-70
301814342239,JILL P. ALTMAN  M.D.  P.C.,16 GUION PL,NEW ROCHELLE,NY,108015502,9146371197,12-Z1
747421143934,MONTEFIORE NEW ROCHELLE HOSPITAL,16 GUION PLACE,NEW ROCHELLE,NY,108015502,9146325000,00-09
415037623670,METRO COMMUNITY HEALTH CENTERS INC,921 E NEW YORK AVE,BROOKLYN,NY,112031301,7187788587,00-04
203655124735,Brooklyn Vet Center,25 Chapel St. Suite 604,Brooklyn,NY,11201,718-630-2830 Or 718-630-2830,
715336242970,BROOKLYN URGENT CARE OF MARINE PARK PLLC,144 E 98TH ST STE B,BROOKLYN,NY,112342811,3473785606,12-70
879658432574,KINGSBROOK JEWISH MEDICAL CENTER,585 SCHENECTADY AVENUE,BROOKLYN,NY,112031822,7186045789,00-09
164932748051,ORIGIN PAIN MANAGEMENT AND MEDICAL CARE  PLLC,486 LINCOLN PL,BROOKLYN,NY,112386202,7184621100,12-70
813233237815,NEW YORK-PRESBYTERIAN/BROOKLYN METHODIST,506 6TH ST,BROOKLYN,NY,112153609,7187803000,00-09
250187862609,BEDFORD STUYVESANT FAMILY HEALTH CTR,1456 FULTON STREET,BROOKLYN,NY,112162505,7186364500,00-04
107143580200,KENMORE MERCY HOSPITAL,2950 ELMWOOD AVE,KENMORE,NY,142171304,7164476100,00-09
676013385215,NEIGHBORHOOD HEALTH CENTER OF WNY  INC.,155 LAWN AVE,BUFFALO,NY,142071816,7168752904,00-04
854405255779,TIAN YANG FAMILY HEALTH NP  PC,391 PELHAM RD,SOMERS,NY,105892811,9173029100,12-70
389146266832,PUTNAM HOSPITAL CENTER,670 STONELEIGH AVE,CARMEL,NY,105123997,8452795711,00-09
416303302028,NORTH SHORE LIJ URGENT CARE PC,265 SUNRISE HWY STE 20,YORKTOWN HEIGHTS,NY,10598,5163214967,12-70
853267789742,WATERVIEW ACQUISITION I LLC,537 ROUTE 22,PURDYS,NY,105782900,9142773691,00-18
911100114309,AVENUE X PRIMARY MEDICAL CARE PC,400 AVENUE X,BROOKLYN,NY,112236008,7183766500,12-70
389652196723,CARE FOR THE HOMELESS,691 E 138TH ST,BRONX,NY,104543307,7189938900,00-04
172804899924,ST BARNABAS HOSPITAL,4422 THIRD AVENUE,BRONX,NY,104572545,7189603867,00-09
375410602578,UNION COMMUNITY HEALTH CENTER  INC,4487 THIRD AVENUE,BRONX,NY,104571526,7189606173,00-04
951198604128,NORTHERN MANHATTAN REHABILITATION AND NURSING CTR,116 EAST 125TH ST,NEW YORK,NY,100351612,2124261284,00-18
646845523290,NYU LANGONE HOSPITALS,259 1ST ST,MINEOLA,NY,115014293,5165761820,00-09
997057917165,MARK MARKLAND NP IN FAMILY HEALTH  PC,114110 230TH ST,GARDEN CITY,NY,115304808,3478793469,12-70
239856200000,CREEDMOOR PSYCHIATRIC CENTER,7925 WINCHESTER BLVD,QUEENS VILLAGE,NY,114272199,7184647500,00-09
682162372844,SAKHO NP IN FAMILY HEALTH PLLC,11572 FRANCIS LEWIS BLVD,CAMBRIA HTS,NY,114111028,7182768666,12-70
161541548898,GLEN COVE HOSPITAL,101 SAINT ANDREWS LN,GLEN COVE,NY,115422254,5166747300,00-09
160848635557,COMPREHENSIVE MEDICAL HEALTH WELLNESS PC,3 DOSORIS LN,GLEN COVE,NY,115422267,5166099400,12-70
668878729722,LIVE WELL MEDICAL CARE PC,178 DAHILL RD STE 1,ROCKAWAY PARK,NY,116942408,3477873974,12-70
844101386249,EXCEL URGENT CARE OF ASTORIA PLLC,157-40 CROSSBAY BLVD,HOWARD BEACH,NY,114142747,8455653700,12-70
143076427159,ROCKLAND FAMILY MEDICAL CARE PC,6 MELNICK DR,MONSEY,NY,109522910,8453529292,12-70
831934575904,BEN GILMAN SPRING VALLEY MEDICAL & DENTAL CLINIC,175 RTE 59,MONSEY,NY,109523333,8453521400,00-04
151956712966,NYS OFFICE OF MENTAL HEALTH,599 CONVENT ROAD,ORANGEBURG,NY,109621106,8453597400,00-09
941961318258,NORTHERN METROPOLITAN INC,225 MAPLE AVE,MONSEY,NY,109522715,8453529000,00-18
591554673528,OPEN DOOR FAMILY MEDICAL CENTER INC,5 GRACE CHURCH ST,PORT CHESTER,NY,105734911,9149378899,00-04
596376366267,NORTHEAST URGENT CARE MEDICAL ASSOCIATES PLLC,1030 W BOSTON POST RD,WHITE PLAINS,NY,106071465,9147772273,12-70
633643672302,ST. LUKE RESIDENTIAL HEALTH CARE FACILITY  INC.,299 E RIVER RD,OSWEGO,NY,131266400,3153423166,12-70
844490645321,WHITE PLAINS HOSPITAL  HOME CARE,90 SOUTH RIDGE STREET,RYE BROOK,NY,105732867,9146811087,00-06
509399126122,ROCHESTER GENERAL HOSPITAL,1425 PORTLAND AVE,WOLCOTT,NY,145909792,5859224000,00-09
587393445006,JANSEN HOSPICE AND PALLIATIVE CARE,670 WHITE PLAINS ROAD   SUITE 213,SCARSDALE,NY,105835025,9147876158,00-08
146224729665,METRO COMMUNITY HEALTH CENTERS INC,2324 FOREST AVE,STATEN ISLAND,NY,103031506,7184470200,00-04
696391301891,SETTLEMENT HEALTH AND MEDICAL SERVICES INC,212 E 106TH ST,NEW YORK,NY,100294007,2123602600,00-04
724946731764,FAMILY HEALTH CENTER OF HARLEM,1824 MADISON AVENUE,NEW YORK,NY,100353832,2124234500,00-04
524845510165,TERENCE CARDINAL COOKE HEALTH CARE CENTER,1249 5TH AVE,NEW YORK,NY,100294413,2123603764,00-09
690148667808,COMMUNITY MEDICAL CARE PC,19909 HILLSIDE AVE,HOLLIS,NY,114232130,7184541732,12-70
907781689568,HOLLIS PARK MANOR NURSING HOME,191 06 HILLSIDE AVENUE,HOLLIS,NY,114231942,7184791010,00-18
547811333810,LIVING WATER NP IN FAMILY HEALTH PLLC,78 MARGARET DR,VALLEY STREAM,NY,115801741,9175137462,12-70
382785473670,PARKER JEWISH INSTITUTE FOR HEALTH CARE AND REHABILITATION,27111 76TH AVE,NEW HYDE PARK,NY,110401436,7182892100,00-08
526379706137,MS ALAM MEDICAL CARE PC,170-07 HILLSIDE AVENUE,JAMAICA,NY,114324546,3473809050,12-70
555116640221,NEW YORK CITY HEALTH AND HOSPITALS CORPORATION,8268 164TH ST,JAMAICA,NY,114321121,7188832929,00-09
164628124788,HILLSIDE URGENT CARE PLLC,16403 HILLSIDE AVE,JAMAICA,NY,114324140,7185548072,12-70
829365208724,SETON HEALTH AT SCHUYLER RIDGE RESIDENTIAL HEALTHCARE,1 ABELE DR,CLIFTON PARK,NY,120652951,5183711400,12-70
835397795587,ALBANY MEDICAL CENTER HOSPITAL,43 NEW SCOTLAND AVE,NISKAYUNA,NY,123096311,8662627476,00-09
130588771288,M J H S HOSPICE AND PALLIATIVE CARE  INC,39 BROADWAY  SUITE 200,NEW YORK,NY,100063039,2124202844,00-08
903285642760,CENTRALMED URGENT CARE AND PRIMARY CARE LLP,1662 CENTRAL AVE,COLONIE,NY,122054059,5182401456,12-70
666552317428,CARE FOR THE HOMELESS,89-111 PORTER AVENUE,BROOKLYN,NY,112371417,7184172535,00-04
344158722440,THE NEW YORK AND PRESBYTERIAN HOSPITAL,525 E 68TH ST,NEW YORK,NY,100654870,2127465454,00-09
569797550723,PLAZA EAST INTERNAL MEDICINE PC,110 E 59TH ST,NEW YORK,NY,100165442,2127507404,12-70
234484522342,NEW WINDSOR FAMILY MEDICINE PLLC,575 HUDSON VALLEY AVE,NEW WINDSOR,NY,125534746,8452202270,12-70
533907800067,JERICHO ROAD MINISTRIES INC,100 E TUPPER ST,BUFFALO,NY,142031315,7168816191,00-04
613074341434,WELLNOW URGENT CARE PC,7375 OSWEGO RD,WEST SENECA,NY,142243339,7166999032,12-70
783950206611,BRIGHTON FAMILY MEDICINE LLP,945 E HENRIETTA RD,ROCHESTER,NY,146231419,5852926440,12-70
250579602573,COUNTY OF MONROE,435 E HENRIETTA RD,ROCHESTER,NY,146204629,5857606500,00-09
302684169452,SAXONY PRIMARY CARE PLLC,7 WEMBLEY CT,ALBANY,NY,122053851,5187044320,12-70
157275694077,SHAKER PLACE REHABILITATION AND NURSING CENTER,780 ALBANY SHAKER ROAD,ALBANY,NY,122111058,5188692231,00-18
640948462094,EXTEND CARE FAMILY HEALTH NP PLLC,101 HERKIMER RD,UTICA,NY,135022311,3157246144,12-70
306509427154,MOHAWK VALLEY PSYCHIATRIC CENTER,1400 NOYES ST,UTICA,NY,135023802,3157976800,00-09
369338863440,UTICA COMMUNITY HLTH CTR,1651 ONEIDA STREET,UTICA,NY,135014866,3157937600,00-04
883745468257,TRUSTEES OF THE MASONIC HALL AND ASYLUM FUND,2150 BLEECKER ST,UTICA,NY,135011738,3157984800,00-18
534411555661,SAWKILL FAMILY MEDICAL ASSOCIATES PC,501 HURLEY AVENUE,HURLEY,NY,124435124,8453394667,12-70
921123546900,HEALTHALLIANCE HOSPITAL MARY'S AVE CAMPUS,105 MARY'S AVE,KINGSTON,NY,124015848,8459436007,00-09
